H1 CPF  1  DLR 2021 05 27 10  6472 technosat            
H2  1704205 6203    42829 2021 05 27 00 00 00 2021 06 03 00 00 00    60 1 1  0 0 0
H9
10 0 59363  50400.000000  0        942907.169        -56629.706      -6911752.328
10 0 59363  50460.000000  0       1036887.969       -502675.239      -6880749.466
10 0 59363  50520.000000  0       1122634.285       -947404.273      -6820753.131
10 0 59363  50580.000000  0       1199808.001      -1388883.521      -6732019.887
10 0 59363  50640.000000  0       1268123.516      -1825190.714      -6614925.745
10 0 59363  50700.000000  0       1327348.790      -2254422.772      -6469964.700
10 0 59363  50760.000000  0       1377306.109      -2674703.975      -6297746.823
10 0 59363  50820.000000  0       1417872.534      -3084194.097      -6098995.923
10 0 59363  50880.000000  0       1448980.032      -3481096.499      -5874546.720
10 0 59363  50940.000000  0       1470615.355      -3863666.015      -5625341.483
10 0 59363  51000.000000  0       1482819.648      -4230216.601      -5352426.248
10 0 59363  51060.000000  0       1485687.791      -4579128.748      -5056946.661
10 0 59363  51120.000000  0       1479367.457      -4908856.697      -4740143.467
10 0 59363  51180.000000  0       1464057.885      -5217935.470      -4403347.582
10 0 59363  51240.000000  0       1440008.342      -5504987.583      -4047974.705
10 0 59363  51300.000000  0       1407516.330      -5768729.389      -3675519.527
10 0 59363  51360.000000  0       1366925.545      -6007977.008      -3287549.596
10 0 59363  51420.000000  0       1318623.610      -6221651.886      -2885698.859
10 0 59363  51480.000000  0       1263039.565      -6408785.925      -2471660.870
10 0 59363  51540.000000  0       1200641.145      -6568526.125      -2047181.670
10 0 59363  51600.000000  0       1131931.830      -6700138.707      -1614052.433
10 0 59363  51660.000000  0       1057447.669      -6803012.732      -1174101.862
10 0 59363  51720.000000  0        977753.927      -6876663.114       -729188.355
10 0 59363  51780.000000  0        893441.617      -6920733.035       -281192.052
10 0 59363  51840.000000  0        805123.904      -6934995.790        167993.204
10 0 59363  51900.000000  0        713432.354      -6919356.057        616468.003
10 0 59363  51960.000000  0        619013.111      -6873850.504       1062335.576
10 0 59363  52020.000000  0        522523.009      -6798647.808       1503709.980
10 0 59363  52080.000000  0        424625.638      -6694048.031       1938724.286
10 0 59363  52140.000000  0        325987.384      -6560481.341       2365538.659
10 0 59363  52200.000000  0        227273.472      -6398506.058       2782348.318
10 0 59363  52260.000000  0        129144.032      -6208806.090       3187391.253
10 0 59363  52320.000000  0         32250.166      -5992187.798       3578955.689
10 0 59363  52380.000000  0        -62769.856      -5749576.381       3955387.263
10 0 59363  52440.000000  0       -155294.301      -5482011.772       4315096.024
10 0 59363  52500.000000  0       -244721.589      -5190643.939       4656563.158
10 0 59363  52560.000000  0       -330473.763      -4876727.674       4978347.297
10 0 59363  52620.000000  0       -411999.769      -4541617.014       5279090.462
10 0 59363  52680.000000  0       -488778.592      -4186759.254       5557523.727
10 0 59363  52740.000000  0       -560322.213      -3813688.464       5812472.479
10 0 59363  52800.000000  0       -626178.351      -3424018.646       6042861.189
10 0 59363  52860.000000  0       -685932.992      -3019436.598       6247717.696
10 0 59363  52920.000000  0       -739212.694      -2601694.564       6426177.053
10 0 59363  52980.000000  0       -785686.658      -2172602.690       6577484.978
10 0 59363  53040.000000  0       -825068.555      -1734021.224       6701000.933
10 0 59363  53100.000000  0       -857118.108      -1287852.498       6796200.759
10 0 59363  53160.000000  0       -881642.448       -836032.706       6862678.859
10 0 59363  53220.000000  0       -898497.201       -380523.539       6900149.869
10 0 59363  53280.000000  0       -907587.290         76696.247       6908449.863
10 0 59363  53340.000000  0       -908867.449        533639.349       6887537.127
10 0 59363  53400.000000  0       -902342.461        988318.514       6837492.429
10 0 59363  53460.000000  0       -888067.107       1438755.111       6758518.802
10 0 59363  53520.000000  0       -866145.865       1882987.701       6650940.889
10 0 59363  53580.000000  0       -836732.319       2319080.572       6515203.781
10 0 59363  53640.000000  0       -800028.299       2745132.156       6351871.393
10 0 59363  53700.000000  0       -756282.776       3159283.398       6161624.415
10 0 59363  53760.000000  0       -705790.470       3559726.011       5945257.693
10 0 59363  53820.000000  0       -648890.184       3944710.478       5703677.137
10 0 59363  53880.000000  0       -585962.880       4312553.856       5437896.214
10 0 59363  53940.000000  0       -517429.530       4661647.374       5149032.015
10 0 59363  54000.000000  0       -443748.722       4990463.848       4838300.828
10 0 59363  54060.000000  0       -365414.015       5297564.760       4507013.116
10 0 59363  54120.000000  0       -282951.042       5581606.784       4156568.020
10 0 59363  54180.000000  0       -196914.444       5841347.832       3788447.678
10 0 59363  54240.000000  0       -107884.698       6075652.952       3404211.305
10 0 59363  54300.000000  0        -16464.748       6283500.000       3005488.642
10 0 59363  54360.000000  0         76723.609       6463984.695       2593972.744
10 0 59363  54420.000000  0        171043.516       6616324.697       2171412.497
10 0 59363  54480.000000  0        265846.869       6739863.263       1739605.158
10 0 59363  54540.000000  0        360478.219       6834072.409       1300388.455
10 0 59363  54600.000000  0        454278.783       6898555.380        855632.528
10 0 59363  54660.000000  0        546590.474       6933048.533        407231.707
10 0 59363  54720.000000  0        636759.954       6937422.554        -42903.914
10 0 59363  54780.000000  0        724142.662       6911682.933       -492856.982
10 0 59363  54840.000000  0        808106.751       6855969.787       -940711.376
10 0 59363  54900.000000  0        888036.967       6770557.030      -1384560.677
10 0 59363  54960.000000  0        963338.434       6655850.915      -1822516.583
10 0 59363  55020.000000  0       1033440.335       6512387.910      -2252717.228
10 0 59363  55080.000000  0       1097799.455       6340831.937      -2673335.358
10 0 59363  55140.000000  0       1155903.581       6141970.998      -3082586.294
10 0 59363  55200.000000  0       1207274.720       5916713.202      -3478735.681
10 0 59363  55260.000000  0       1251472.122       5666082.235      -3860106.951
10 0 59363  55320.000000  0       1288095.081       5391212.294      -4225088.476
10 0 59363  55380.000000  0       1316785.519       5093342.512      -4572140.362
10 0 59363  55440.000000  0       1337230.317       4773810.936      -4899800.847
10 0 59363  55500.000000  0       1349163.383       4434048.114      -5206692.282
10 0 59363  55560.000000  0       1352367.456       4075570.353      -5491526.713
10 0 59363  55620.000000  0       1346675.631       3699972.661      -5753111.104
10 0 59363  55680.000000  0       1331972.631       3308921.288      -5990352.091
10 0 59363  55740.000000  0       1308195.765       2904146.056      -6202260.193
10 0 59363  55800.000000  0       1275335.600       2487432.512      -6387953.575
10 0 59363  55860.000000  0       1233436.367       2060613.955      -6546661.338
10 0 59363  55920.000000  0       1182596.102       1625563.369      -6677726.419
10 0 59363  55980.000000  0       1122966.481       1184185.153      -6780608.089
10 0 59363  56040.000000  0       1054752.360        738406.772      -6854883.840
10 0 59363  56100.000000  0        978211.078        290170.438      -6900250.875
10 0 59363  56160.000000  0        893651.447       -158575.300      -6916527.152
10 0 59363  56220.000000  0        801432.457       -605883.928      -6903651.867
10 0 59363  56280.000000  0        701961.734      -1049819.205      -6861685.523
10 0 59363  56340.000000  0        595693.765      -1488463.354      -6790809.553
10 0 59363  56400.000000  0        483127.871      -1919925.104      -6691325.521
10 0 59363  56460.000000  0        364805.942      -2342347.634      -6563654.008
10 0 59363  56520.000000  0        241309.869      -2753916.538      -6408333.026
10 0 59363  56580.000000  0        113258.742      -3152867.589      -6226015.818
10 0 59363  56640.000000  0        -18694.124      -3537494.196      -6017468.220
10 0 59363  56700.000000  0       -153864.355      -3906154.632      -5783565.659
10 0 59363  56760.000000  0       -291539.889      -4257279.053      -5525289.742
10 0 59363  56820.000000  0       -430984.547      -4589376.245      -5243724.392
10 0 59363  56880.000000  0       -571441.781      -4901040.068      -4940051.549
10 0 59363  56940.000000  0       -712138.582      -5190955.554      -4615546.463
10 0 59363  57000.000000  0       -852289.518      -5457904.651      -4271572.553
10 0 59363  57060.000000  0       -991100.889      -5700771.537      -3909575.878
10 0 59363  57120.000000  0      -1127774.974      -5918547.508      -3531079.228
10 0 59363  57180.000000  0      -1261514.340      -6110335.400      -3137675.873
10 0 59363  57240.000000  0      -1391526.215      -6275353.540      -2731022.993
10 0 59363  57300.000000  0      -1517026.895      -6412939.222      -2312834.778
10 0 59363  57360.000000  0      -1637246.141      -6522551.637      -1884875.205
10 0 59363  57420.000000  0      -1751431.541      -6603774.224      -1448950.564
10 0 59363  57480.000000  0      -1858852.823      -6656316.454      -1006901.774
10 0 59363  57540.000000  0      -1958806.098      -6680015.017       -560596.496
99
